STARLINK-31886          
1 59662U 24084J   26068.31215115 -.00001996  00000+0 -63018-4 0  9995
2 59662  43.0081  44.0830 0001695 279.9777  80.0883 15.27572869104312
FLOCK 4G-5              
1 62663U 25009BG  26068.45638436  .00011278  00000+0  40688-3 0  9997
2 62663  97.4058 151.2478 0002094 314.5072  45.5996 15.28679529 63699
